{"epoch":1784799577,"count":18318,"objects":[{"id":"38867","name":"INTELSAT 23","type":"PAYLOAD","l1":"1 38867U 12057A   26203.91531683 -.00000281  00000-0  00000-0 0  9998","l2":"2 38867   0.0247 295.6919 0000257 248.1772  33.2865  1.00269443 50318"},{"id":"38953","name":"BEIDOU 16","type":"PAYLOAD","l1":"1 38953U 12059A   26204.00869560 -.00000176  00000-0  00000-0 0  9998","l2":"2 38953   4.5100  73.1341 0008946 329.6421 345.1347  1.00273147 50268"},{"id":"38977","name":"LUCH 5B","type":"PAYLOAD","l1":"1 38977U 12061A   26203.92290471 -.00000142  00000-0  00000-0 0  9999","l2":"2 38977  10.5592  49.5225 0003849 142.0155  65.0607  1.00270871 49965"},{"id":"38978","name":"YAMAL 300K","type":"PAYLOAD","l1":"1 38978U 12061B   26203.57930361  .00000075  00000-0  00000-0 0  9994","l2":"2 38978   0.0092 114.3785 0000158  10.6714 206.7639  1.00270995 49986"},{"id":"38991","name":"STARONE C3","type":"PAYLOAD","l1":"1 38991U 12062A   26203.88462407 -.00000245  00000-0  00000-0 0  9995","l2":"2 38991   0.0187  52.9837 0002581  72.6256  58.4878  1.00269945 50120"},{"id":"38992","name":"EUTE 21B","type":"PAYLOAD","l1":"1 38992U 12062B   26203.95516525  .00000134  00000-0  00000-0 0  9991","l2":"2 38992   0.0666 351.0687 0003233 139.4211 175.6528  1.00274631 50185"},{"id":"39008","name":"ECHOSTAR 16","type":"PAYLOAD","l1":"1 39008U 12065A   26203.91187794 -.00000278  00000-0  00000-0 0  9991","l2":"2 39008   0.0162  60.0699 0002210  57.4379  89.9215  1.00272120 50005"},{"id":"39017","name":"CHINASAT 12","type":"PAYLOAD","l1":"1 39017U 12067A   26203.84553722 -.00000202  00000-0  00000-0 0  9990","l2":"2 39017   0.0204 121.3900 0002920 355.9520 215.1228  1.00270979 49869"},{"id":"39020","name":"EUTE 70B","type":"PAYLOAD","l1":"1 39020U 12069A   26203.93831758 -.00000039  00000-0  00000-0 0  9992","l2":"2 39020   0.0635 347.1601 0003442 133.3939 228.4204  1.00271193 49869"},{"id":"39022","name":"YAMAL 402","type":"PAYLOAD","l1":"1 39022U 12070A   26203.69645782  .00000088  00000-0  00000-0 0  9992","l2":"2 39022   1.3532  83.7147 0003856  31.0616 131.2827  1.00273493 49759"},{"id":"39034","name":"SKYNET 5D","type":"PAYLOAD","l1":"1 39034U 12075A   26203.90822738  .00000103  00000-0  00000-0 0  9990","l2":"2 39034   0.0712 348.1356 0003779 143.9151 188.3296  1.00276201 49516"},{"id":"39035","name":"MEXSAT 3","type":"PAYLOAD","l1":"1 39035U 12075B   26203.66283101  .00000000  00000-0  00000-0 0  9995","l2":"2 39035   0.0209  57.8269 0000953  62.3416 304.0714  1.00275945  7402"},{"id":"39070","name":"TDRS 11","type":"PAYLOAD","l1":"1 39070U 13004A   26203.77128207  .00000081  00000-0  00000-0 0  9993","l2":"2 39070   3.5728  31.8067 0005192  30.6121 341.5046  1.00265836 47051"},{"id":"39078","name":"AMAZONAS 3","type":"PAYLOAD","l1":"1 39078U 13006A   26203.91327733 -.00000278  00000-0  00000-0 0  9993","l2":"2 39078   0.0552 240.1696 0003644 272.1055  56.1397  1.00270337 45270"},{"id":"39079","name":"AZERSPACE 1","type":"PAYLOAD","l1":"1 39079U 13006B   26203.90267411  .00000137  00000-0  00000-0 0  9992","l2":"2 39079   0.0367 264.1451 0002226 243.8140 163.6260  1.00272754 49165"},{"id":"39120","name":"SBIRS GEO 2 (USA 241)","type":"PAYLOAD","l1":"1 39120U 13011A   26203.88958758 -.00000286  00000-0  00000-0 0  9999","l2":"2 39120   4.5641  52.5005 0001859  67.0358  91.5458  1.00271491 48892"},{"id":"39122","name":"EUTE 117 WEST A(SATMEX 8","type":"PAYLOAD","l1":"1 39122U 13012A   26203.66248434 -.00000009  00000-0  00000-0 0  9994","l2":"2 39122   0.0313 295.1380 0002982 184.5661 302.3819  1.00272129 48783"},{"id":"39127","name":"ANIK G1","type":"PAYLOAD","l1":"1 39127U 13014A   26203.66439102 -.00000070  00000-0  00000-0 0  9993","l2":"2 39127   0.0120  29.1827 0002013  97.1275 305.9760  1.00272569 48603"},{"id":"39157","name":"CHINASAT 11","type":"PAYLOAD","l1":"1 39157U 13020A   26203.99230551 -.00000286  00000-0  00000-0 0  9995","l2":"2 39157   0.0372 277.1586 0002413 164.9988 313.7104  1.00272774 48258"},{"id":"39163","name":"EUTE 7B (EUTE 3D)","type":"PAYLOAD","l1":"1 39163U 13022A   26203.87475385  .00000052  00000-0  00000-0 0  9997","l2":"2 39163   0.0649 353.9388 0003185  58.8523 209.7168  1.00272315 48309"},{"id":"39168","name":"WGS 5 (USA 243)","type":"PAYLOAD","l1":"1 39168U 13024A   26203.91662432  .00000000  00000-0  00000-0 0  9993","l2":"2 39168   0.0222  59.6278 0000409  87.0345  71.4894  1.00268334 47531"},{"id":"39172","name":"SES 6","type":"PAYLOAD","l1":"1 39172U 13026A   26203.89140758 -.00000257  00000-0  00000-0 0  9994","l2":"2 39172   0.0169  27.0566 0002792  75.1310 118.8535  1.00271242 48083"},{"id":"39199","name":"IRNSS R1A","type":"PAYLOAD","l1":"1 39199U 13034A   26203.69637116  .00000051  00000-0  00000-0 0  9990","l2":"2 39199  35.7966  63.3613 0018792 179.4799   3.3059  1.00271851 47729"},{"id":"39206","name":"MUOS 2","type":"PAYLOAD","l1":"1 39206U 13036A   26203.86217730 -.00000012  00000-0  00000-0 0  9994","l2":"2 39206   5.0643  45.5550 0053331 176.4321 200.9837  1.00273687 47557"},{"id":"39215","name":"ALPHASAT (I-4A F4)","type":"PAYLOAD","l1":"1 39215U 13038A   26203.86364413  .00000136  00000-0  00000-0 0  9993","l2":"2 39215   2.9995   1.0727 0002583 137.5217 137.7937  1.00270998 44378"},{"id":"39216","name":"INSAT 3D","type":"PAYLOAD","l1":"1 39216U 13038B   26203.92510366 -.00000337  00000-0  00000-0 0  9995","l2":"2 39216   2.0158  82.0895 0001138  43.8435 277.2757  1.00272852 47433"},{"id":"39222","name":"WGS 6 (USA 244)","type":"PAYLOAD","l1":"1 39222U 13041A   26203.73003650  .00000093  00000-0  00000-0 0  9996","l2":"2 39222   0.0172  57.3717 0000414  22.0941 348.6194  1.00270959 46410"},{"id":"39233","name":"ES'HAIL 1","type":"PAYLOAD","l1":"1 39233U 13044A   26203.86364413  .00000147  00000-0  00000-0 0  9992","l2":"2 39233   0.0473   7.7655 0002457 104.9831 164.2489  1.00272519 46988"},{"id":"39234","name":"GSAT 7","type":"PAYLOAD","l1":"1 39234U 13044B   26203.88656171 -.00000073  00000-0  00000-0 0  9999","l2":"2 39234   0.1700  89.3548 0002965 172.7615  71.6311  1.00272540 45615"},{"id":"39237","name":"AMOS 4","type":"PAYLOAD","l1":"1 39237U 13045A   26203.91236360  .00000012  00000-0  00000-0 0  9993","l2":"2 39237   0.0054  45.2883 0002276  40.7701 248.0345  1.00272129 47316"},{"id":"39256","name":"AEHF 3 (USA 246)","type":"PAYLOAD","l1":"1 39256U 13050A   26203.66109766  .00000028  00000-0  00000-0 0  9998","l2":"2 39256   5.3783  66.8535 0088787 187.7297 159.5434  1.00272893 46008"},{"id":"39285","name":"ASTRA 2E","type":"PAYLOAD","l1":"1 39285U 13056A   26203.86364413  .00000154  00000-0  00000-0 0  9990","l2":"2 39285   0.0652 326.4791 0002529 153.0227 160.4682  1.00272689 46778"}]}