OBJECT_NAME,OBJECT_ID,EPOCH,MEAN_MOTION,ECCENTRICITY,INCLINATION,RA_OF_ASC_NODE,ARG_OF_PERICENTER,MEAN_ANOMALY,EPHEMERIS_TYPE,CLASSIFICATION_TYPE,NORAD_CAT_ID,ELEMENT_SET_NO,REV_AT_EPOCH,BSTAR,MEAN_MOTION_DOT,MEAN_MOTION_DDOT
INTELSAT 23 (IS-23),2012-057A,2026-07-22T21:58:03.374112,1.00269443,.00002572,0.0247,295.6919,248.1772,33.2865,0,U,38867,999,5031,0,-.281E-5,0
BEIDOU-2 G6,2012-059A,2026-07-23T00:12:31.299840,1.00273147,.00089456,4.5100,73.1341,329.6421,345.1347,0,U,38953,999,5026,0,-.176E-5,0
LUCH-5B,2012-061A,2026-07-22T22:08:58.966944,1.00270871,.00038492,10.5592,49.5225,142.0155,65.0607,0,U,38977,999,4996,0,-.142E-5,0
YAMAL 300K,2012-061B,2026-07-22T13:54:11.831904,1.00270995,.00001585,0.0092,114.3785,10.6714,206.7639,0,U,38978,999,4998,0,.75E-6,0
STAR ONE C3,2012-062A,2026-07-22T21:13:51.519648,1.00269945,.00025811,0.0187,52.9837,72.6256,58.4878,0,U,38991,999,5012,0,-.245E-5,0
EUTELSAT 21B,2012-062B,2026-07-22T22:55:26.277600,1.00274631,.00032329,0.0666,351.0687,139.4211,175.6528,0,U,38992,999,5018,0,.134E-5,0
ECHOSTAR 16,2012-065A,2026-07-22T21:53:06.254016,1.00272120,.00022103,0.0162,60.0699,57.4379,89.9215,0,U,39008,999,5000,0,-.278E-5,0
ZHONGXING-12,2012-067A,2026-07-22T20:17:34.415808,1.00270979,.000292,0.0204,121.3900,355.9520,215.1228,0,U,39017,999,4986,0,-.202E-5,0
EUTELSAT 70B,2012-069A,2026-07-22T22:31:10.638912,1.00271193,.00034416,0.0635,347.1601,133.3939,228.4204,0,U,39020,999,4986,0,-.39E-6,0
YAMAL 402,2012-070A,2026-07-22T16:42:53.955648,1.00273493,.00038558,1.3532,83.7147,31.0616,131.2827,0,U,39022,999,4975,0,.88E-6,0
SKYNET 5D,2012-075A,2026-07-22T21:47:50.845632,1.00276201,.00037795,0.0712,348.1356,143.9151,188.3296,0,U,39034,999,4951,0,.103E-5,0
MEXSAT 3,2012-075B,2026-07-22T15:54:28.599264,1.00275945,.00009533,0.0209,57.8269,62.3416,304.0714,0,U,39035,999,740,0,0,0
TDRS 11,2013-004A,2026-07-22T18:30:38.770848,1.00265836,.00051916,3.5728,31.8067,30.6121,341.5046,0,U,39070,999,4705,0,.81E-6,0
AMAZONAS 3,2013-006A,2026-07-22T21:55:07.161312,1.00270337,.00036436,0.0552,240.1696,272.1055,56.1397,0,U,39078,999,4527,0,-.278E-5,0
AZERSPACE 1,2013-006B,2026-07-22T21:39:51.043104,1.00272754,.00022261,0.0367,264.1451,243.8140,163.6260,0,U,39079,999,4916,0,.137E-5,0
SBIRS GEO-2 (USA 241),2013-011A,2026-07-22T21:21:00.366912,1.00271491,.00018593,4.5641,52.5005,67.0358,91.5458,0,U,39120,999,4889,0,-.286E-5,0
EUTELSAT 117 WEST A,2013-012A,2026-07-22T15:53:58.646976,1.00272129,.00029817,0.0313,295.1380,184.5661,302.3819,0,U,39122,999,4878,0,-.9E-7,0
ANIK G1,2013-014A,2026-07-22T15:56:43.384128,1.00272569,.00020129,0.0120,29.1827,97.1275,305.9760,0,U,39127,999,4860,0,-.7E-6,0
ZHONGXING-11,2013-020A,2026-07-22T23:48:55.196064,1.00272774,.00024132,0.0372,277.1586,164.9988,313.7104,0,U,39157,999,4825,0,-.286E-5,0
EUTELSAT 7B,2013-022A,2026-07-22T20:59:38.732640,1.00272315,.0003185,0.0649,353.9388,58.8523,209.7168,0,U,39163,999,4830,0,.52E-6,0
WGS F5 (USA 243),2013-024A,2026-07-22T21:59:56.341248,1.00268334,.00004087,0.0222,59.6278,87.0345,71.4894,0,U,39168,999,4753,0,0,0
SES-6,2013-026A,2026-07-22T21:23:37.614912,1.00271242,.00027915,0.0169,27.0566,75.1310,118.8535,0,U,39172,999,4808,0,-.257E-5,0
IRNSS-1A,2013-034A,2026-07-22T16:42:46.468224,1.00271851,.00187917,35.7966,63.3613,179.4799,3.3059,0,U,39199,999,4772,0,.51E-6,0
MUOS-2,2013-036A,2026-07-22T20:41:32.118720,1.00273687,.00533314,5.0643,45.5550,176.4321,200.9837,0,U,39206,999,4755,0,-.12E-6,0
ALPHASAT,2013-038A,2026-07-22T20:43:38.852832,1.00270998,.00025827,2.9995,1.0727,137.5217,137.7937,0,U,39215,999,4437,0,.136E-5,0
INSAT-3D,2013-038B,2026-07-22T22:12:08.956224,1.00272852,.00011375,2.0158,82.0895,43.8435,277.2757,0,U,39216,999,4743,0,-.337E-5,0
WGS F6 (USA 244),2013-041A,2026-07-22T17:31:15.153600,1.00270959,.00004141,0.0172,57.3717,22.0941,348.6194,0,U,39222,999,4641,0,.93E-6,0
ES'HAIL 1,2013-044A,2026-07-22T20:43:38.852832,1.00272519,.00024572,0.0473,7.7655,104.9831,164.2489,0,U,39233,999,4698,0,.147E-5,0
GSAT-7,2013-044B,2026-07-22T21:16:38.931744,1.00272540,.0002965,0.1700,89.3548,172.7615,71.6311,0,U,39234,999,4561,0,-.73E-6,0
AMOS-4,2013-045A,2026-07-22T21:53:48.215040,1.00272129,.00022758,0.0054,45.2883,40.7701,248.0345,0,U,39237,999,4731,0,.12E-6,0
AEHF-3 (USA 246),2013-050A,2026-07-22T15:51:58.837824,1.00272893,.0088787,5.3783,66.8535,187.7297,159.5434,0,U,39256,999,4600,0,.28E-6,0
ASTRA 2E,2013-056A,2026-07-22T20:43:38.852832,1.00272689,.00025287,0.0652,326.4791,153.0227,160.4682,0,U,39285,999,4677,0,.154E-5,0
